#cP2012 11 15  0  0  0.00000000     288 u+U   IGb08 FIT  TUM
## 1714 345600.00000000   300.00000000 56246 0.0000000000000
+    3   J01E11E12  0  0  0  0  0  0  0  0  0  0  0  0  0  0
+          0  0  0  0  0  0  0  0  0  0  0  0  0  0  0  0  0
+          0  0  0  0  0  0  0  0  0  0  0  0  0  0  0  0  0
+          0  0  0  0  0  0  0  0  0  0  0  0  0  0  0  0  0
+          0  0  0  0  0  0  0  0  0  0  0  0  0  0  0  0  0
++         4  1  1  0  0  0  0  0  0  0  0  0  0  0  0  0  0
++         0  0  0  0  0  0  0  0  0  0  0  0  0  0  0  0  0
++         0  0  0  0  0  0  0  0  0  0  0  0  0  0  0  0  0
++         0  0  0  0  0  0  0  0  0  0  0  0  0  0  0  0  0
++         0  0  0  0  0  0  0  0  0  0  0  0  0  0  0  0  0
%c E  cc GPS ccc cccc cccc cccc cccc ccccc ccccc ccccc ccccc
%c cc cc ccc ccc cccc cccc cccc cccc ccccc ccccc ccccc ccccc
%f  1.2500000  1.025000000  0.00000000000  0.000000000000000
%f  0.0000000  0.000000000  0.00000000000  0.000000000000000
%i    0    0    0    0      0      0      0      0         0
%i    0    0    0    0      0      0      0      0         0
/* Galileo+QZSS orbits for MGEX based on CONGO+MGEX data    
/* Technische Universitaet Muenchen (TUM)                   
/* Further information: www.iapg.bv.tum.de/mgex             
/* PCV:IGS08_1645 OL/AL:FES2004  NONE     YN ORB:CoN CLK:CoN
*  2012 11 15 16 40  0.00000000
PJ01 -18147.841628  24669.405034 -24331.566582    351.366466
PE11   8086.696141 -17073.138154  22783.048859    467.181429
PE12  24509.684034 -11323.071717  12129.794212    515.342003
*  2012 11 15 16 45  0.00000000
PJ01 -18287.811741  24362.989307 -24503.368990    351.366656
PE11   8762.095227 -17159.737216  22466.112465    467.297273
PE12  24858.909895 -11376.632961  11343.421503    515.367514
*  2012 11 15 16 50  0.00000000
PJ01 -18438.889047  24059.975052 -24660.459943    351.366713
PE11   9425.473570 -17260.098100  22118.091524    467.413076
PE12  25183.197044 -11434.634893  10541.353993    515.393016
*  2012 11 15 16 55  0.00000000
PJ01 -18600.880144  23760.861117 -24802.724770    351.366806
PE11  10075.642614 -17373.577945  21739.467528    467.528891
PE12  25482.082530 -11495.923426   9724.701248    515.418526
*  2012 11 15 17  0  0.00000000
PJ01 -18773.569808  23466.139262 -24930.059393    351.366967
PE11  10711.455274 -17499.470914  21330.764311    467.644707
PE12  25755.177385 -11559.322865   8894.593040    515.444057
*  2012 11 15 17  5  0.00000000
PJ01 -18956.721370  23176.293108 -25042.370469    351.367078
PE11  11331.809656 -17637.010732  20892.547334    467.760473
PE12  26002.167819 -11623.640237   8052.177797    515.469547
*  2012 11 15 17 10  0.00000000
PJ01 -19150.077174  22891.797074 -25139.575534    351.367145
PE11  11935.652667 -17785.373434  20425.422891    467.876257
PE12  26222.816181 -11687.669677   7198.620998    515.495059
*  2012 11 15 17 15  0.00000000
PJ01 -19353.359056  22613.115365 -25221.603122    351.367293
PE11  12521.983397 -17943.680322  19930.037286    467.992027
PE12  26416.961627 -11750.196877   6335.103576    515.520594
*  2012 11 15 17 20  0.00000000
PJ01 -19566.268905  22340.700958 -25288.392873    351.367394
PE11  13089.856374 -18111.001117  19407.075928    468.107793
PE12  26584.520554 -11810.003550   5462.820265    515.546135
*  2012 11 15 17 25  0.00000000
PJ01 -19788.489254  22074.994624 -25339.895619    351.367458
PE11  13638.384600 -18286.357291  18857.262385    468.223553
PE12  26725.486749 -11865.871915   4582.977953    515.571626
*  2012 11 15 17 30  0.00000000
PJ01 -20019.683929  21816.423977 -25376.073462    351.367607
PE11  14166.742384 -18468.725577  18281.357390    468.339413
PE12  26839.931274 -11916.589187   3696.794014    515.597187
*  2012 11 15 17 35  0.00000000
PJ01 -20259.498738  21565.402553 -25396.899826    351.367776
PE11  14674.167976 -18657.041636  17680.157779    468.455242
PE12  26928.002091 -11960.952049   2805.494608    515.622669
*  2012 11 15 17 40  0.00000000
PJ01 -20507.562210  21322.328925 -25402.359500    351.367800
PE11  15159.965963 -18850.203872  17054.495398    468.571065
PE12  26989.923419 -11997.771089   1910.312997    515.648199
*  2012 11 15 17 45  0.00000000
PJ01 -20763.486375  21087.585846 -25392.448659    351.367854
PE11  15623.509455 -19047.077379  16405.235942    468.686888
PE12  27025.994824 -12025.875197   1012.487818    515.673727
*  2012 11 15 17 50  0.00000000
PJ01 -21026.867581  20861.539447 -25367.174868    351.367989
PE11  16064.242008 -19246.498013  15733.277767    468.802717
PE12  27036.590054 -12044.115901    113.261384    515.699249
*  2012 11 15 17 55  0.00000000
PJ01 -21297.287356  20644.538454 -25326.557073    351.368072
PE11  16481.679331 -19447.276563  15039.550638    468.918569
PE12  27022.155620 -12051.371611   -786.122055    515.724716
*  2012 11 15 18  0  0.00000000
PJ01 -21574.313306  20436.913466 -25270.625564    351.368185
PE11  16875.410720 -19648.203021  14325.014446    469.034383
PE12  26983.209124 -12046.551794  -1684.418029    515.750305
*  2012 11 15 18  5  0.00000000
PJ01 -21857.500020  20238.976271 -25199.421953    351.368313
PE11  17245.100245 -19848.050921  13590.657887    469.150227
PE12  26920.337341 -12028.601020  -2580.383558    515.775816
*  2012 11 15 18 10  0.00000000
PJ01 -22146.390074  20051.019205 -25112.999069    351.368383
PE11  17590.487693 -20045.581747  12837.497069    469.265985
PE12  26834.194066 -11996.502905  -3472.778919    515.801353
*  2012 11 15 18 15  0.00000000
PJ01 -22440.514968  19873.314566 -25011.420920    351.368420
PE11  17911.389216 -20239.549377  12066.574135    469.381778
PE12  26725.497732 -11949.283906  -4360.369314    515.826889
*  2012 11 15 18 20  0.00000000
PJ01 -22739.396169  19706.114076 -24894.762572    351.368621
PE11  18207.697746 -20428.704568  11278.955794    469.497596
PE12  26595.028800 -11886.016976  -5241.926615    515.852420
*  2012 11 15 18 25  0.00000000
PJ01 -23042.546132  19549.648391 -24763.110049    351.368790
PE11  18479.383126 -20611.799445  10475.731863    469.613435
PE12  26443.626945 -11805.825053  -6116.231050    515.877910
*  2012 11 15 18 30  0.00000000
PJ01 -23349.469358  19404.126665 -24616.560198    351.368922
PE11  18726.491981 -20787.592002   9658.013741    469.729288
PE12  26272.188031 -11707.884381  -6982.072907    515.903425
*  2012 11 15 18 35  0.00000000
PJ01 -23659.663463  19269.736173 -24455.220549    351.369002
PE11  18949.147321 -20954.850568   8826.932884    469.845061
PE12  26081.660898 -11591.427639  -7838.254195    515.928869
*  2012 11 15 18 40  0.00000000
PJ01 -23972.620260  19146.641980 -24279.209158    351.369129
PE11  19147.547883 -21112.358259   7983.639221    469.960870
PE12  25873.043969 -11455.746882  -8683.590320    515.954426
*  2012 11 15 18 45  0.00000000
PJ01 -24287.826851  19034.986668 -24088.654431    351.369186
PE11  19321.967204 -21258.917368   7129.299580    470.076666
PE12  25647.381683 -11300.196271  -9516.911712    515.979973
*  2012 11 15 18 50  0.00000000
PJ01 -24604.766733  18934.890121 -23883.694943    351.369258
PE11  19472.752446 -21393.353701   6265.096052    470.192524
PE12  25405.760780 -11124.194588 -10337.065455    516.005491
*  2012 11 15 18 55  0.00000000
PJ01 -24922.920895  18846.449361 -23664.479233    351.369383
PE11  19600.322952 -21514.520828   5392.224361    470.308340
PE12  25149.306429 -10927.227527 -11142.916883    516.030991
*  2012 11 15 19  0  0.00000000
PJ01 -25241.768932  18769.738441 -23431.165596    351.369453
PE11  19705.168568 -21621.304239   4511.892217    470.424162
PE12  24879.178243 -10708.849750 -11933.351142    516.056530
*  2012 11 15 19  5  0.00000000
PJ01 -25560.790144  18704.808401 -23183.921856    351.369506
PE11  19787.847708 -21712.625402   3625.317619    470.539963
PE12  24596.566161 -10468.686708 -12707.274748    516.082042
*  2012 11 15 19 10  0.00000000
PJ01 -25879.464632  18651.687265 -22922.925135    351.369624
PE11  19848.985190 -21787.445688   2733.727195    470.655773
PE12  24302.686242 -10206.436215 -13463.617086    516.107578
*  2012 11 15 19 15  0.00000000
PJ01 -26197.274401  18610.380106 -22648.361603    351.369723
PE11  19889.269840 -21844.770162   1838.354475    470.771575
PE12  23998.776364  -9921.869763 -14201.331904    516.133095
*  2012 11 15 19 20  0.00000000
PJ01 -26513.704428  18580.869154 -22360.426222    351.369767
PE11  19909.451878 -21883.651230    940.438205    470.887385
PE12  23686.091854  -9614.833588 -14919.398749    516.158607
*  2012 11 15 19 25  0.00000000
PJ01 -26828.243739  18563.113969 -22059.322484    351.369849
PE11  19910.340088 -21903.192120     41.220612    471.003163
PE12  23365.901058  -9285.249474 -15616.824391    516.184121
*  2012 11 15 19 30  0.00000000
PJ01 -27140.386453  18557.051661 -21745.262137    351.369970
PE11  19892.798788 -21902.550183   -858.054303    471.118967
PE12  23039.480880  -8933.115296 -16292.644184    516.209644
*  2012 11 15 19 35  0.00000000
PJ01 -27449.632823  18562.597151 -21418.464900    351.370003
PE11  19857.744613 -21880.940019  -1756.142497    471.234726
PE12  22708.112280  -8558.505289 -16945.923406    516.235163
*  2012 11 15 19 40  0.00000000
PJ01 -27755.490240  18579.643505 -21079.158180    351.370093
PE11  19806.143111 -21837.636401  -2651.801609    471.350586
PE12  22373.075778  -8161.570062 -17575.758555    516.260703
*  2012 11 15 19 45  0.00000000
PJ01 -28057.474222  18608.062298 -20727.576776    351.370227
PE11  19739.005176 -21771.976987  -3543.792669    471.466425
PE12  22035.646949  -7742.536346 -18181.278583    516.286211
*  2012 11 15 19 50  0.00000000
PJ01 -28355.109380  18647.704030 -20363.962577    351.370270
PE11  19657.383326 -21683.364824  -4430.881830    471.582275
PE12  21697.091955  -7301.706464 -18761.646117    516.311745
*  2012 11 15 19 55  0.00000000
PJ01 -28647.930347  18698.398588 -19988.564266    351.370356
PE11  19562.367838 -21571.270620  -5311.842062    471.698112
PE12  21358.663100  -6839.457551 -19316.058599    516.337268
EOF
